NORAD_CAT_ID,OBJECT_NAME,OBJECT_TYPE,EPOCH,MEAN_MOTION,ECCENTRICITY,INCLINATION,RA_OF_ASC_NODE,ARG_OF_PERICENTER,MEAN_ANOMALY,BSTAR,MEAN_MOTION_DOT,MEAN_MOTION_DDOT,TLE_LINE0,TLE_LINE1,TLE_LINE2,SEMIMAJOR_AXIS,PERIOD,APOGEE,PERIGEE,DECAYED
52869.0,STARLINK-4266,PAYLOAD,2023-09-18 20:32:05,15.08832751,0.0001652,53.2165,107.0951,87.5861,272.532,0.00079113,0.00012323,0.0,0 STARLINK-4266,1 52869U 22062AR  23261.85561635  .00012323  00000-0  79113-3 0  9990,2 52869  53.2165 107.0951 0001652  87.5861 272.5320 15.08832751 69765,6917.903,95.438,540.91,538.625,0.0
52869.0,STARLINK-4266,PAYLOAD,2023-09-19 18:47:27,15.08849967,0.0001375,53.2157,102.9359,85.3888,274.7261,0.00015385,2.162e-05,0.0,0 STARLINK-4266,1 52869U 22062AR  23262.78296234  .00002162  00000-0  15385-3 0  9994,2 52869  53.2157 102.9359 0001375  85.3888 274.7261 15.08849967 70395,6917.85,95.437,540.666,538.764,0.0
52869.0,STARLINK-4266,PAYLOAD,2023-09-19 23:33:37,15.08854963,0.0001389,53.2155,102.0425,86.6606,273.4545,0.00025202,3.727e-05,0.0,0 STARLINK-4266,1 52869U 22062AR  23262.98167919  .00003727  00000-0  25202-3 0  9990,2 52869  53.2155 102.0425 0001389  86.6606 273.4545 15.08854963 69936,6917.835,95.437,540.661,538.739,0.0
52869.0,STARLINK-4266,PAYLOAD,2023-09-20 18:38:15,15.08829196,0.0001727,53.216,98.4687,114.3827,245.7345,-0.00015064,-2.684e-05,0.0,0 STARLINK-4266,1 52869U 22062AR  23263.77657091 -.00002684  00000-0 -15064-3 0  9991,2 52869  53.2160  98.4687 0001727 114.3827 245.7345 15.08829196 70549,6917.913,95.438,540.973,538.584,0.0
52869.0,STARLINK-4266,PAYLOAD,2023-09-21 05:45:58,15.088289,0.0001364,53.2161,96.3932,86.2977,273.8171,-5.6745e-05,-1.191e-05,0.0,0 STARLINK-4266,1 52869U 22062AR  23264.24025646 -.00001191  00000-0 -56745-4 0  9993,2 52869  53.2161  96.3932 0001364  86.2977 273.8171 15.08828900 70125,6917.914,95.438,540.723,538.836,0.0
52869.0,STARLINK-4266,PAYLOAD,2023-09-21 21:39:49,15.088425,0.0001378,53.2159,93.4191,87.268,272.847,0.000276,4.108e-05,0.0,0 STARLINK-4266,1 52869U 22062AR  23264.90265583  .00004108  00000-0  27600-3 0  9998,2 52869  53.2159  93.4191 0001378  87.2680 272.8470 15.08842500 70228,6917.873,95.437,540.691,538.784,0.0
52869.0,STARLINK-4266,PAYLOAD,2023-09-22 05:36:45,15.08843763,0.0001375,53.2161,91.9324,87.5773,272.5377,0.0003102,4.653e-05,0.0,0 STARLINK-4266,1 52869U 22062AR  23265.23385651  .00004653  00000-0  31020-3 0  9990,2 52869  53.2161  91.9324 0001375  87.5773 272.5377 15.08843763 70275,6917.869,95.437,540.685,538.783,0.0
52869.0,STARLINK-4266,PAYLOAD,2023-09-22 21:30:36,15.08856734,0.0001399,53.2162,88.9588,86.9885,273.1268,0.00049753,7.643e-05,0.0,0 STARLINK-4266,1 52869U 22062AR  23265.89625174  .00007643  00000-0  49753-3 0  9993,2 52869  53.2162  88.9588 0001399  86.9885 273.1268 15.08856734 70376,6917.829,95.436,540.662,538.726,0.0
52869.0,STARLINK-4266,PAYLOAD,2023-09-23 11:49:04,15.08844852,0.0001938,53.2165,86.2836,78.3556,281.7653,0.0001305,1.79e-05,0.0,0 STARLINK-4266,1 52869U 22062AR  23266.49241533  .00001790  00000-0  13050-3 0  9991,2 52869  53.2165  86.2836 0001938  78.3556 281.7653 15.08844852 70950,6917.866,95.437,541.071,538.39,0.0
52869.0,STARLINK-4266,PAYLOAD,2023-09-24 11:39:51,15.08843977,0.0001455,53.2158,81.8225,76.2729,283.8425,0.00035512,5.369e-05,0.0,0 STARLINK-4266,1 52869U 22062AR  23267.48601615  .00005369  00000-0  35512-3 0  9995,2 52869  53.2158  81.8225 0001455  76.2729 283.8425 15.08843977 70618,6917.868,95.437,540.74,538.727,0.0
52869.0,STARLINK-4266,PAYLOAD,2023-09-24 18:01:24,15.08848979,0.0001467,53.2159,80.6332,74.7902,285.3253,0.00053369,8.218e-05,0.0,0 STARLINK-4266,1 52869U 22062AR  23267.75097515  .00008218  00000-0  53369-3 0  9999,2 52869  53.2159  80.6332 0001467  74.7902 285.3253 15.08848979 71146,6917.853,95.437,540.733,538.703,0.0
52869.0,STARLINK-4266,PAYLOAD,2023-09-25 11:30:38,15.08844236,0.0001515,53.2153,77.3639,75.6004,284.5156,0.00019898,2.881e-05,0.0,0 STARLINK-4266,1 52869U 22062AR  23268.47961477  .00002881  00000-0  19898-3 0  9995,2 52869  53.2153  77.3639 0001515  75.6004 284.5156 15.08844236 70762,6917.867,95.437,540.78,538.684,0.0
52869.0,STARLINK-4266,PAYLOAD,2023-09-25 17:52:11,15.08846629,0.0001562,53.2163,76.1741,76.0875,284.0291,0.00021283,3.101e-05,0.0,0 STARLINK-4266,1 52869U 22062AR  23268.74457369  .00003101  00000-0  21283-3 0  9992,2 52869  53.2163  76.1741 0001562  76.0875 284.0291 15.08846629 71299,6917.86,95.437,540.806,538.645,0.0
52869.0,STARLINK-4266,PAYLOAD,2023-09-25 22:38:20,15.08856293,0.0001413,53.2166,75.2803,84.722,275.3933,0.00030876,4.632e-05,0.0,0 STARLINK-4266,1 52869U 22062AR  23268.94328715  .00004632  00000-0  30876-3 0  9994,2 52869  53.2166  75.2803 0001413  84.7220 275.3933 15.08856293 71324,6917.831,95.437,540.673,538.718,0.0
52869.0,STARLINK-4266,PAYLOAD,2023-09-26 14:32:12,15.08829655,0.0001389,53.2167,72.3084,78.172,281.9427,-0.00012608,-2.293e-05,0.0,0 STARLINK-4266,1 52869U 22062AR  23269.60570092 -.00002293  00000-0 -12608-3 0  9991,2 52869  53.2167  72.3084 0001389  78.1720 281.9427 15.08829655 70937,6917.912,95.438,540.738,538.816,0.0
52869.0,STARLINK-4266,PAYLOAD,2023-09-26 16:07:35,15.08830351,0.0001472,53.2166,72.0109,77.8316,282.2841,-0.00010242,-1.917e-05,0.0,0 STARLINK-4266,1 52869U 22062AR  23269.67194113 -.00001917  00000-0 -10242-3 0  9998,2 52869  53.2166  72.0109 0001472  77.8316 282.2841 15.08830351 71436,6917.91,95.438,540.793,538.757,0.0
52869.0,STARLINK-4266,PAYLOAD,2023-09-26 20:53:44,15.08835772,0.0001476,53.216,71.1166,93.3394,266.7767,1.4481e-05,-5.8e-07,0.0,0 STARLINK-4266,1 52869U 22062AR  23269.87065898 -.00000058  00000-0  14481-4 0  9991,2 52869  53.2160  71.1166 0001476  93.3394 266.7767 15.08835772 70970,6917.893,95.438,540.779,538.737,0.0
52869.0,STARLINK-4266,PAYLOAD,2023-09-27 11:12:13,15.08839146,0.000152,53.2166,68.4378,108.6031,251.5127,0.00012093,1.637e-05,0.0,0 STARLINK-4266,1 52869U 22062AR  23270.46681911  .00001637  00000-0  12093-3 0  9997,2 52869  53.2166  68.4378 0001520 108.6031 251.5127 15.08839146 71060,6917.883,95.438,540.8,538.696,0.0
52869.0,STARLINK-4266,PAYLOAD,2023-09-27 15:58:22,15.08846155,0.0001482,53.2167,67.5462,106.0827,254.0328,0.00028845,4.306e-05,0.0,0 STARLINK-4266,1 52869U 22062AR  23270.66553754  .00004306  00000-0  28845-3 0  9990,2 52869  53.2167  67.5462 0001482 106.0827 254.0328 15.08846155 71583,6917.862,95.437,540.752,538.701,0.0
52869.0,STARLINK-4266,PAYLOAD,2023-09-28 09:27:37,15.08841439,0.0001517,53.217,64.2757,106.1484,253.9675,0.0001971,2.85e-05,0.0,0 STARLINK-4266,1 52869U 22062AR  23271.39418040  .00002850  00000-0  19710-3 0  9992,2 52869  53.2170  64.2757 0001517 106.1484 253.9675 15.08841439 71692,6917.876,95.437,540.79,538.692,0.0
52869.0,STARLINK-4266,PAYLOAD,2023-09-28 14:13:46,15.08841122,0.0001239,53.2163,63.3842,96.1174,263.9959,0.00010654,1.408e-05,0.0,0 STARLINK-4266,1 52869U 22062AR  23271.59290032  .00001408  00000-0  10654-3 0  9999,2 52869  53.2163  63.3842 0001239  96.1174 263.9959 15.08841122 71239,6917.877,95.437,540.599,538.885,0.0
52869.0,STARLINK-4266,PAYLOAD,2023-09-28 17:24:32,15.0884105,0.0001219,53.2165,62.7895,96.7095,263.4036,0.00011275,1.507e-05,0.0,0 STARLINK-4266,1 52869U 22062AR  23271.72538021  .00001507  00000-0  11275-3 0  9997,2 52869  53.2165  62.7895 0001219  96.7095 263.4036 15.08841050 71251,6917.877,95.437,540.585,538.899,0.0
52869.0,STARLINK-4266,PAYLOAD,2023-09-29 10:53:47,15.08837358,0.0001205,53.2166,59.5191,93.5088,266.6042,-2.6288e-05,-7.06e-06,0.0,0 STARLINK-4266,1 52869U 22062AR  23272.45402325 -.00000706  00000-0 -26288-4 0  9998,2 52869  53.2166  59.5191 0001205  93.5088 266.6042 15.08837358 71851,6917.888,95.438,540.587,538.92,0.0
52869.0,STARLINK-4266,PAYLOAD,2023-09-29 14:04:33,15.08840836,0.0001229,53.2167,58.9242,98.115,261.9982,2.1746e-05,5.8e-07,0.0,0 STARLINK-4266,1 52869U 22062AR  23272.58650123  .00000058  00000-0  21746-4 0  9995,2 52869  53.2167  58.9242 0001229  98.1150 261.9982 15.08840836 71383,6917.878,95.438,540.593,538.893,0.0
52869.0,STARLINK-4266,PAYLOAD,2023-09-29 17:15:21,15.0879231,0.000151,53.2179,58.3299,85.9847,274.1318,0.00095997,0.00015003,0.0,0 STARLINK-4266,1 52869U 22062AR  23272.71899967  .00015003  00000-0  95997-3 0  9995,2 52869  53.2179  58.3299 0001510  85.9847 274.1318 15.08792310 71890,6918.026,95.441,540.936,538.847,0.0
52869.0,STARLINK-4266,PAYLOAD,2023-09-30 09:09:11,15.08838365,0.000123,53.2184,55.3566,83.8839,276.2293,8.3267e-05,1.038e-05,0.0,0 STARLINK-4266,1 52869U 22062AR  23273.38138619  .00001038  00000-0  83267-4 0  9990,2 52869  53.2184  55.3566 0001230  83.8839 276.2293 15.08838365 71994,6917.885,95.438,540.601,538.899,0.0
52869.0,STARLINK-4266,PAYLOAD,2023-09-30 17:06:06,15.08846597,0.0001342,53.2183,53.8702,70.8587,289.255,0.00013985,1.939e-05,0.0,0 STARLINK-4266,1 52869U 22062AR  23273.71257901  .00001939  00000-0  13985-3 0  9992,2 52869  53.2183  53.8702 0001342  70.8587 289.2550 15.08846597 72041,6917.86,95.437,540.654,538.797,0.0
52869.0,STARLINK-4266,PAYLOAD,2023-10-01 08:59:58,15.0884592,0.0001185,53.2181,50.8964,83.5067,276.606,9.7047e-05,1.257e-05,0.0,0 STARLINK-4266,1 52869U 22062AR  23274.37498041  .00001257  00000-0  97047-4 0  9992,2 52869  53.2181  50.8964 0001185  83.5067 276.6060 15.08845920 72141,6917.862,95.437,540.547,538.908,0.0
52869.0,STARLINK-4266,PAYLOAD,2023-10-01 13:46:07,15.08847726,0.0001168,53.2174,50.0036,80.7457,279.3667,0.00011607,1.56e-05,0.0,0 STARLINK-4266,1 52869U 22062AR  23274.57369794  .00001560  00000-0  11607-3 0  9990,2 52869  53.2174  50.0036 0001168  80.7457 279.3667 15.08847726 71685,6917.857,95.437,540.53,538.914,0.0
52869.0,STARLINK-4266,PAYLOAD,2023-10-01 16:56:53,15.08854833,0.000122,53.2172,49.4084,83.746,276.3671,0.00021483,3.134e-05,0.0,0 STARLINK-4266,1 52869U 22062AR  23274.70617312  .00003134  00000-0  21483-3 0  9999,2 52869  53.2172  49.4084 0001220  83.7460 276.3671 15.08854833 72190,6917.835,95.437,540.544,538.856,0.0
